GLOBALSTAR M024 [-]     
1 25883U 99043A   24066.19007119  .00000007  00000+0  25474-2 0  9997
2 25883  52.0061 356.5762 0001997  55.7876  93.0614 11.10156538 62888
GLOBALSTAR M027 [-]     
1 25884U 99043B   24066.45538572 -.00000100  00000+0 -13810-2 0  9996
2 25884  52.0214  60.7068 0021215 316.2298  43.6814 11.04367641 89569
GLOBALSTAR M054 [-]     
1 25885U 99043C   24066.79564282 -.00000032  00000+0  99541-3 0  9990
2 25885  52.0114 265.6876 0005542  91.6028 281.1830 11.39206128 66115
GLOBALSTAR M053 [-]     
1 25886U 99043D   24066.58039809 -.00000076  00000+0 -21847-3 0  9993
2 25886  51.9965 187.3542 0003103  23.6455  63.2791 11.27654120 66692
GLOBALSTAR M058 [-]     
1 25907U 99049A   24066.78143189 -.00000030  00000+0  73620-3 0  9997
2 25907  51.9929 277.2472 0003188  92.1328 267.9872 11.93178519 96951
GLOBALSTAR M050 [-]     
1 25908U 99049B   24066.19121243 -.00000040  00000+0  53979-3 0  9996
2 25908  52.0008 321.4625 0008832 175.0278 353.3129 12.07429742 91650
GLOBALSTAR M033 [-]     
1 25909U 99049C   24066.56152029 -.00000030  00000+0  59176-3 0  9998
2 25909  51.9887 224.5765 0012001  33.7527 326.4083 12.20268659478654
GLOBALSTAR M055 [-]     
1 25910U 99049D   24066.52940013 -.00000105  00000+0 -93710-4 0  9991
2 25910  52.0003 258.1727 0006220 236.2607 123.7652 12.29396599110763
